2025-292F               
1 66998U 25292F   26002.75048125  .00010687  00000+0  75249-3 0  9991
2 66998  97.6548  80.1191 0015743 202.3294 157.7248 15.05116327  3559
2025-292G               
1 66999U 25292G   26002.74947950  .00010742  00000+0  75516-3 0  9994
2 66999  97.6557  80.1231 0015217 204.0742 155.9775 15.05181293  3557
2025-292H               
1 67000U 25292H   26002.68262191  .00012979  00000+0  90973-3 0  9996
2 67000  97.6571  80.0615 0015107 204.3230 155.7285 15.05244515  3411
2025-292J               
1 67001U 25292J   26002.62562711  .00011366  00000+0  81122-3 0  9997
2 67001  97.6536  79.9758 0015580 195.2914 164.7844 15.04595053  3539
ZK-1A R/B               
1 67002U 25292K   26002.78940546  .00208796  14201-4  89557-3 0  9999
2 67002  97.7186  82.3553 0195479 287.9720  70.0316 15.61827596  3674
STARLINK-35660          
1 67003U 25293A   26002.75002314 -.00132632  00000+0 -21833-2 0  9996
2 67003  69.9996 263.9468 0003349 266.0400 325.0906 15.52594582  3533
STARLINK-35913          
1 67004U 25293B   26002.75002314 -.00119764  00000+0 -19684-2 0  9999
2 67004  70.0000 263.9446 0003161 265.5064 327.5386 15.52589322  3536
STARLINK-36148          
1 67005U 25293C   26002.75002314 -.00114050  00000+0 -18735-2 0  9999
2 67005  69.9999 263.9422 0003471 260.0091 334.9600 15.52581289  3534
STARLINK-36156          
1 67006U 25293D   26002.75002314 -.00059483  00000+0 -96983-3 0  9990
2 67006  69.9999 263.9379 0003056 266.3019 332.4939 15.52564149  3538
STARLINK-36123          
1 67007U 25293E   26002.75002314 -.00124396  00000+0 -20459-2 0  9991
2 67007  69.9998 263.9399 0002720 267.1384 329.7415 15.52591288  3533
STARLINK-36163          
1 67008U 25293F   26002.75002314 -.00148977  00000+0 -24569-2 0  9999
2 67008  70.0001 263.9354 0002866 265.9431 334.7636 15.52606157  3536
STARLINK-36118          
1 67009U 25293G   26002.75002314 -.00115322  00000+0 -18945-2 0  9999
2 67009  70.0000 263.9333 0003265 267.9158 334.7132 15.52586011  3475
