CCSDS_OMM_VERS = 2.0
CREATION_DATE  = 
ORIGINATOR     = 

OBJECT_NAME    = 2025-292F
OBJECT_ID      = 2025-292F
CENTER_NAME    = EARTH
REF_FRAME      = TEME
TIME_SYSTEM    = UTC
MEAN_ELEMENT_THEORY = SGP/SGP4

EPOCH          = 2026-01-02T18:00:41.580000
MEAN_MOTION    = 15.05116327
ECCENTRICITY   = .0015743
INCLINATION    = 97.6548
RA_OF_ASC_NODE = 80.1191
ARG_OF_PERICENTER = 202.3294
MEAN_ANOMALY   = 157.7248

EPHEMERIS_TYPE = 0
CLASSIFICATION_TYPE = U
NORAD_CAT_ID   = 66998
ELEMENT_SET_NO = 999
REV_AT_EPOCH   = 355
BSTAR          = .75249E-3
MEAN_MOTION_DOT = .10687E-3
MEAN_MOTION_DDOT = 0

CCSDS_OMM_VERS = 2.0
CREATION_DATE  = 
ORIGINATOR     = 

OBJECT_NAME    = 2025-292G
OBJECT_ID      = 2025-292G
CENTER_NAME    = EARTH
REF_FRAME      = TEME
TIME_SYSTEM    = UTC
MEAN_ELEMENT_THEORY = SGP/SGP4

EPOCH          = 2026-01-02T17:59:15.028800
MEAN_MOTION    = 15.05181293
ECCENTRICITY   = .0015217
INCLINATION    = 97.6557
RA_OF_ASC_NODE = 80.1231
ARG_OF_PERICENTER = 204.0742
MEAN_ANOMALY   = 155.9775

EPHEMERIS_TYPE = 0
CLASSIFICATION_TYPE = U
NORAD_CAT_ID   = 66999
ELEMENT_SET_NO = 999
REV_AT_EPOCH   = 355
BSTAR          = .75516E-3
MEAN_MOTION_DOT = .10742E-3
MEAN_MOTION_DDOT = 0

CCSDS_OMM_VERS = 2.0
CREATION_DATE  = 
ORIGINATOR     = 

OBJECT_NAME    = 2025-292H
OBJECT_ID      = 2025-292H
CENTER_NAME    = EARTH
REF_FRAME      = TEME
TIME_SYSTEM    = UTC
MEAN_ELEMENT_THEORY = SGP/SGP4

EPOCH          = 2026-01-02T16:22:58.533024
MEAN_MOTION    = 15.05244515
ECCENTRICITY   = .0015107
INCLINATION    = 97.6571
RA_OF_ASC_NODE = 80.0615
ARG_OF_PERICENTER = 204.3230
MEAN_ANOMALY   = 155.7285

EPHEMERIS_TYPE = 0
CLASSIFICATION_TYPE = U
NORAD_CAT_ID   = 67000
ELEMENT_SET_NO = 999
REV_AT_EPOCH   = 341
BSTAR          = .90973E-3
MEAN_MOTION_DOT = .12979E-3
MEAN_MOTION_DDOT = 0

CCSDS_OMM_VERS = 2.0
CREATION_DATE  = 
ORIGINATOR     = 

OBJECT_NAME    = 2025-292J
OBJECT_ID      = 2025-292J
CENTER_NAME    = EARTH
REF_FRAME      = TEME
TIME_SYSTEM    = UTC
MEAN_ELEMENT_THEORY = SGP/SGP4

EPOCH          = 2026-01-02T15:00:54.182304
MEAN_MOTION    = 15.04595053
ECCENTRICITY   = .001558
INCLINATION    = 97.6536
RA_OF_ASC_NODE = 79.9758
ARG_OF_PERICENTER = 195.2914
MEAN_ANOMALY   = 164.7844

EPHEMERIS_TYPE = 0
CLASSIFICATION_TYPE = U
NORAD_CAT_ID   = 67001
ELEMENT_SET_NO = 999
REV_AT_EPOCH   = 353
BSTAR          = .81122E-3
MEAN_MOTION_DOT = .11366E-3
MEAN_MOTION_DDOT = 0

CCSDS_OMM_VERS = 2.0
CREATION_DATE  = 
ORIGINATOR     = 

OBJECT_NAME    = ZK-1A R/B
OBJECT_ID      = 2025-292K
CENTER_NAME    = EARTH
REF_FRAME      = TEME
TIME_SYSTEM    = UTC
MEAN_ELEMENT_THEORY = SGP/SGP4

EPOCH          = 2026-01-02T18:56:44.631744
MEAN_MOTION    = 15.61827596
ECCENTRICITY   = .0195479
INCLINATION    = 97.7186
RA_OF_ASC_NODE = 82.3553
ARG_OF_PERICENTER = 287.9720
MEAN_ANOMALY   = 70.0316

EPHEMERIS_TYPE = 0
CLASSIFICATION_TYPE = U
NORAD_CAT_ID   = 67002
ELEMENT_SET_NO = 999
REV_AT_EPOCH   = 367
BSTAR          = .89557E-3
MEAN_MOTION_DOT = .208796E-2
MEAN_MOTION_DDOT = .14201E-4

CCSDS_OMM_VERS = 2.0
CREATION_DATE  = 
ORIGINATOR     = 

OBJECT_NAME    = STARLINK-35660
OBJECT_ID      = 2025-293A
CENTER_NAME    = EARTH
REF_FRAME      = TEME
TIME_SYSTEM    = UTC
MEAN_ELEMENT_THEORY = SGP/SGP4

EPOCH          = 2026-01-02T18:00:01.999296
MEAN_MOTION    = 15.52594582
ECCENTRICITY   = .0003349
INCLINATION    = 69.9996
RA_OF_ASC_NODE = 263.9468
ARG_OF_PERICENTER = 266.0400
MEAN_ANOMALY   = 325.0906

EPHEMERIS_TYPE = 0
CLASSIFICATION_TYPE = U
NORAD_CAT_ID   = 67003
ELEMENT_SET_NO = 999
REV_AT_EPOCH   = 353
BSTAR          = -.21833E-2
MEAN_MOTION_DOT = -.132632E-2
MEAN_MOTION_DDOT = 0

CCSDS_OMM_VERS = 2.0
CREATION_DATE  = 
ORIGINATOR     = 

OBJECT_NAME    = STARLINK-35913
OBJECT_ID      = 2025-293B
CENTER_NAME    = EARTH
REF_FRAME      = TEME
TIME_SYSTEM    = UTC
MEAN_ELEMENT_THEORY = SGP/SGP4

EPOCH          = 2026-01-02T18:00:01.999296
MEAN_MOTION    = 15.52589322
ECCENTRICITY   = .0003161
INCLINATION    = 70.0000
RA_OF_ASC_NODE = 263.9446
ARG_OF_PERICENTER = 265.5064
MEAN_ANOMALY   = 327.5386

EPHEMERIS_TYPE = 0
CLASSIFICATION_TYPE = U
NORAD_CAT_ID   = 67004
ELEMENT_SET_NO = 999
REV_AT_EPOCH   = 353
BSTAR          = -.19684E-2
MEAN_MOTION_DOT = -.119764E-2
MEAN_MOTION_DDOT = 0

CCSDS_OMM_VERS = 2.0
CREATION_DATE  = 
ORIGINATOR     = 

OBJECT_NAME    = STARLINK-36148
OBJECT_ID      = 2025-293C
CENTER_NAME    = EARTH
REF_FRAME      = TEME
TIME_SYSTEM    = UTC
MEAN_ELEMENT_THEORY = SGP/SGP4

EPOCH          = 2026-01-02T18:00:01.999296
MEAN_MOTION    = 15.52581289
ECCENTRICITY   = .0003471
INCLINATION    = 69.9999
RA_OF_ASC_NODE = 263.9422
ARG_OF_PERICENTER = 260.0091
MEAN_ANOMALY   = 334.9600

EPHEMERIS_TYPE = 0
CLASSIFICATION_TYPE = U
NORAD_CAT_ID   = 67005
ELEMENT_SET_NO = 999
REV_AT_EPOCH   = 353
BSTAR          = -.18735E-2
MEAN_MOTION_DOT = -.11405E-2
MEAN_MOTION_DDOT = 0

CCSDS_OMM_VERS = 2.0
CREATION_DATE  = 
ORIGINATOR     = 

OBJECT_NAME    = STARLINK-36156
OBJECT_ID      = 2025-293D
CENTER_NAME    = EARTH
REF_FRAME      = TEME
TIME_SYSTEM    = UTC
MEAN_ELEMENT_THEORY = SGP/SGP4

EPOCH          = 2026-01-02T18:00:01.999296
MEAN_MOTION    = 15.52564149
ECCENTRICITY   = .0003056
INCLINATION    = 69.9999
RA_OF_ASC_NODE = 263.9379
ARG_OF_PERICENTER = 266.3019
MEAN_ANOMALY   = 332.4939

EPHEMERIS_TYPE = 0
CLASSIFICATION_TYPE = U
NORAD_CAT_ID   = 67006
ELEMENT_SET_NO = 999
REV_AT_EPOCH   = 353
BSTAR          = -.96983E-3
MEAN_MOTION_DOT = -.59483E-3
MEAN_MOTION_DDOT = 0

CCSDS_OMM_VERS = 2.0
CREATION_DATE  = 
ORIGINATOR     = 

OBJECT_NAME    = STARLINK-36123
OBJECT_ID      = 2025-293E
CENTER_NAME    = EARTH
REF_FRAME      = TEME
TIME_SYSTEM    = UTC
MEAN_ELEMENT_THEORY = SGP/SGP4

EPOCH          = 2026-01-02T18:00:01.999296
MEAN_MOTION    = 15.52591288
ECCENTRICITY   = .000272
INCLINATION    = 69.9998
RA_OF_ASC_NODE = 263.9399
ARG_OF_PERICENTER = 267.1384
MEAN_ANOMALY   = 329.7415

EPHEMERIS_TYPE = 0
CLASSIFICATION_TYPE = U
NORAD_CAT_ID   = 67007
ELEMENT_SET_NO = 999
REV_AT_EPOCH   = 353
BSTAR          = -.20459E-2
MEAN_MOTION_DOT = -.124396E-2
MEAN_MOTION_DDOT = 0

CCSDS_OMM_VERS = 2.0
CREATION_DATE  = 
ORIGINATOR     = 

OBJECT_NAME    = STARLINK-36163
OBJECT_ID      = 2025-293F
CENTER_NAME    = EARTH
REF_FRAME      = TEME
TIME_SYSTEM    = UTC
MEAN_ELEMENT_THEORY = SGP/SGP4

EPOCH          = 2026-01-02T18:00:01.999296
MEAN_MOTION    = 15.52606157
ECCENTRICITY   = .0002866
INCLINATION    = 70.0001
RA_OF_ASC_NODE = 263.9354
ARG_OF_PERICENTER = 265.9431
MEAN_ANOMALY   = 334.7636

EPHEMERIS_TYPE = 0
CLASSIFICATION_TYPE = U
NORAD_CAT_ID   = 67008
ELEMENT_SET_NO = 999
REV_AT_EPOCH   = 353
BSTAR          = -.24569E-2
MEAN_MOTION_DOT = -.148977E-2
MEAN_MOTION_DDOT = 0

CCSDS_OMM_VERS = 2.0
CREATION_DATE  = 
ORIGINATOR     = 

OBJECT_NAME    = STARLINK-36118
OBJECT_ID      = 2025-293G
CENTER_NAME    = EARTH
REF_FRAME      = TEME
TIME_SYSTEM    = UTC
MEAN_ELEMENT_THEORY = SGP/SGP4

EPOCH          = 2026-01-02T18:00:01.999296
MEAN_MOTION    = 15.52586011
ECCENTRICITY   = .0003265
INCLINATION    = 70.0000
RA_OF_ASC_NODE = 263.9333
ARG_OF_PERICENTER = 267.9158
MEAN_ANOMALY   = 334.7132

EPHEMERIS_TYPE = 0
CLASSIFICATION_TYPE = U
NORAD_CAT_ID   = 67009
ELEMENT_SET_NO = 999
REV_AT_EPOCH   = 347
BSTAR          = -.18945E-2
MEAN_MOTION_DOT = -.115322E-2
MEAN_MOTION_DDOT = 0

